{
    "links": {
        "self": "http://www.neowsapp.com/rest/v1/neo/3749347?api_key=iIulBulltgU6a56xZRHN4H3l9WmuAYTsLGpBGhQ2"
    },
    "id": "3749347",
    "neo_reference_id": "3749347",
    "name": "(2016 FN56)",
    "designation": "2016 FN56",
    "nasa_jpl_url": "http://ssd.jpl.nasa.gov/sbdb.cgi?sstr=3749347",
    "absolute_magnitude_h": 24.1,
    "estimated_diameter": {
        "kilometers": {
            "estimated_diameter_min": 0.040230458,
            "estimated_diameter_max": 0.0899580388
        },
        "meters": {
            "estimated_diameter_min": 40.2304579834,
            "estimated_diameter_max": 89.9580388169
        },
        "miles": {
            "estimated_diameter_min": 0.0249980399,
            "estimated_diameter_max": 0.0558973165
        },
        "feet": {
            "estimated_diameter_min": 131.9896957704,
            "estimated_diameter_max": 295.1379320721
        }
    },
    "is_potentially_hazardous_asteroid": false,
    "close_approach_data": [
        {
            "close_approach_date": "2016-03-21",
            "close_approach_date_full": "2016-Mar-21 08:34",
            "epoch_date_close_approach": 1458549240000,
            "relative_velocity": {
                "kilometers_per_second": "24.7012203287",
                "kilometers_per_hour": "88924.393183271",
                "miles_per_hour": "55254.1597532386"
            },
            "miss_distance": {
                "astronomical": "0.0025749317",
                "lunar": "1.0016484313",
                "kilometers": "385204.297715479",
                "miles": "239354.8515684502"
            },
            "orbiting_body": "Earth"
        },
        {
            "close_approach_date": "2016-03-21",
            "close_approach_date_full": "2016-Mar-21 12:56",
            "epoch_date_close_approach": 1458564960000,
            "relative_velocity": {
                "kilometers_per_second": "24.6151570114",
                "kilometers_per_hour": "88614.5652408787",
                "miles_per_hour": "55061.6447187004"
            },
            "miss_distance": {
                "astronomical": "0.0025615233",
                "lunar": "0.9964325637",
                "kilometers": "383198.429635371",
                "miles": "238108.4629392798"
            },
            "orbiting_body": "Moon"
        }
    ],
    "orbital_data": {
        "orbit_id": "3",
        "orbit_determination_date": "2017-04-06 08:26:57",
        "first_observation_date": "2016-03-31",
        "last_observation_date": "2016-04-05",
        "data_arc_in_days": 5,
        "observations_used": 9,
        "orbit_uncertainty": "9",
        "minimum_orbit_intersection": ".00173484",
        "jupiter_tisserand_invariant": "4.730",
        "epoch_osculation": "2457480.5",
        "eccentricity": ".7405874180112434",
        "semi_major_axis": "1.279571712191907",
        "inclination": "5.216632900144732",
        "ascending_node_longitude": "359.7726662944985",
        "orbital_period": "528.6830326687353",
        "perihelion_distance": ".3319370016994768",
        "perihelion_argument": "56.55168743231683",
        "aphelion_distance": "2.227206422684338",
        "perihelion_time": "2457421.750453481227",
        "mean_anomaly": "40.00475793595298",
        "mean_motion": ".680937306012562",
        "equinox": "J2000",
        "orbit_class": {
            "orbit_class_type": "APO",
            "orbit_class_description": "Near-Earth asteroid orbits which cross the Earth’s orbit similar to that of 1862 Apollo",
            "orbit_class_range": "a (semi-major axis) > 1.0 AU; q (perihelion) < 1.017 AU"
        }
    },
    "is_sentry_object": false
}